{"type": "FeatureCollection", "features": [ {"type": "Feature", "properties": {"norad_id": 33917, "name": "COSMOS 2251 DEB", "group": "cosmos-2251-debris", "lat": 67.44287005369328, "lon": -125.82479988150702, "alt_km": 982.1951510755953, "timestamp": "2025-12-27T22:26:48.993628+00:00", "meta": {"OBJECT_NAME": "COSMOS 2251 DEB", "OBJECT_ID": "1993-036DW", "EPOCH": "2025-12-27T07:52:49.891008", "MEAN_MOTION": 13.69395836, "ECCENTRICITY": 0.0331064, "INCLINATION": 74.1073, "RA_OF_ASC_NODE": 98.4731, "ARG_OF_PERICENTER": 196.254, "MEAN_ANOMALY": 162.7759, "EPHEMERIS_TYPE": 0, "CLASSIFICATION_TYPE": "U", "NORAD_CAT_ID": 33917, "ELEMENT_SET_NO": 999, "REV_AT_EPOCH": 83933, "BSTAR": 0.0012085, "MEAN_MOTION_DOT": 1.522e-05, "MEAN_MOTION_DDOT": 0}, "tle": {"line1": "1 33917U 93036DW  25361.32835522  .00001522  00000+0  12085-2 0  9998", "line2": "2 33917  74.1073  98.4731 0331064 196.2540 162.7759 13.69395836839339"}}, "geometry": {"type": "Point", "coordinates": [-125.82479988150702, 67.44287005369328]}}, {"type": "Feature", "properties": {"norad_id": 33920, "name": "COSMOS 2251 DEB", "group": "cosmos-2251-debris", "lat": 16.694476977033897, "lon": -85.5342121130724, "alt_km": 704.4721981050452, "timestamp": "2025-12-27T22:26:48.993638+00:00", "meta": {"OBJECT_NAME": "COSMOS 2251 DEB", "OBJECT_ID": "1993-036DZ", "EPOCH": "2025-12-27T04:15:33.347520", "MEAN_MOTION": 14.58497819, "ECCENTRICITY": 0.00375268, "INCLINATION": 74.0609, "RA_OF_ASC_NODE": 270.9888, "ARG_OF_PERICENTER": 275.3001, "MEAN_ANOMALY": 84.3883, "EPHEMERIS_TYPE": 0, "CLASSIFICATION_TYPE": "U", "NORAD_CAT_ID": 33920, "ELEMENT_SET_NO": 999, "REV_AT_EPOCH": 88325, "BSTAR": 0.0018965408, "MEAN_MOTION_DOT": 8.876e-05, "MEAN_MOTION_DDOT": 0}, "tle": {"line1": "1 33920U 93036DZ  25361.17746930  .00008876  00000+0  18965-2 0  9991", "line2": "2 33920  74.0609 270.9888 0037526 275.3001  84.3883 14.58497819883254"}}, "geometry": {"type": "Point", "coordinates": [-85.5342121130724, 16.694476977033897]}}, {"type": "Feature", "properties": {"norad_id": 33922, "name": "COSMOS 2251 DEB", "group": "cosmos-2251-debris", "lat": 33.4305797317016, "lon": 130.15649905813004, "alt_km": 740.6174777357974, "timestamp": "2025-12-27T22:26:48.993648+00:00", "meta": {"OBJECT_NAME": "COSMOS 2251 DEB", "OBJECT_ID": "1993-036EB", "EPOCH": "2025-12-26T10:09:19.550880", "MEAN_MOTION": 14.49558695, "ECCENTRICITY": 0.0023079, "INCLINATION": 74.0472, "RA_OF_ASC_NODE": 122.1065, "ARG_OF_PERICENTER": 231.2219, "MEAN_ANOMALY": 195.9664, "EPHEMERIS_TYPE": 0, "CLASSIFICATION_TYPE": "U", "NORAD_CAT_ID": 33922, "ELEMENT_SET_NO": 999, "REV_AT_EPOCH": 88776, "BSTAR": 0.00055696, "MEAN_MOTION_DOT": 2.117e-05, "MEAN_MOTION_DDOT": 0}, "tle": {"line1": "1 33922U 93036EB  25360.42314295  .00002117  00000+0  55696-3 0  9990", "line2": "2 33922  74.0472 122.1065 0023079 231.2219 195.9664 14.49558695887765"}}, "geometry": {"type": "Point", "coordinates": [130.15649905813004, 33.4305797317016]}}, {"type": "Feature", "properties": {"norad_id": 33924, "name": "COSMOS 2251 DEB", "group": "cosmos-2251-debris", "lat": -56.479238140419845, "lon": -140.0494341466899, "alt_km": 796.3088878845274, "timestamp": "2025-12-27T22:26:48.993658+00:00", "meta": {"OBJECT_NAME": "COSMOS 2251 DEB", "OBJECT_ID": "1993-036ED", "EPOCH": "2025-12-27T10:17:00.068928", "MEAN_MOTION": 13.50242091, "ECCENTRICITY": 0.040374, "INCLINATION": 73.9127, "RA_OF_ASC_NODE": 246.5906, "ARG_OF_PERICENTER": 279.4456, "MEAN_ANOMALY": 76.1239, "EPHEMERIS_TYPE": 0, "CLASSIFICATION_TYPE": "U", "NORAD_CAT_ID": 33924, "ELEMENT_SET_NO": 999, "REV_AT_EPOCH": 82937, "BSTAR": 0.00045885, "MEAN_MOTION_DOT": 4.62e-06, "MEAN_MOTION_DDOT": 0}, "tle": {"line1": "1 33924U 93036ED  25361.42847302  .00000462  00000+0  45885-3 0  9993", "line2": "2 33924  73.9127 246.5906 0403740 279.4456  76.1239 13.50242091829373"}}, "geometry": {"type": "Point", "coordinates": [-140.0494341466899, -56.479238140419845]}}, {"type": "Feature", "properties": {"norad_id": 33928, "name": "COSMOS 2251 DEB", "group": "cosmos-2251-debris", "lat": 53.30649554380418, "lon": -178.80950666576257, "alt_km": 771.9563388121387, "timestamp": "2025-12-27T22:26:48.993668+00:00", "meta": {"OBJECT_NAME": "COSMOS 2251 DEB", "OBJECT_ID": "1993-036EH", "EPOCH": "2025-12-27T11:55:29.015040", "MEAN_MOTION": 14.47433289, "ECCENTRICITY": 0.0062143, "INCLINATION": 73.9252, "RA_OF_ASC_NODE": 24.7798, "ARG_OF_PERICENTER": 315.9426, "MEAN_ANOMALY": 43.6788, "EPHEMERIS_TYPE": 0, "CLASSIFICATION_TYPE": "U", "NORAD_CAT_ID": 33928, "ELEMENT_SET_NO": 999, "REV_AT_EPOCH": 88858, "BSTAR": 0.0003109, "MEAN_MOTION_DOT": 1.139e-05, "MEAN_MOTION_DDOT": 0}, "tle": {"line1": "1 33928U 93036EH  25361.49686360  .00001139  00000+0  31090-3 0  9994", "line2": "2 33928  73.9252  24.7798 0062143 315.9426  43.6788 14.47433289888586"}}, "geometry": {"type": "Point", "coordinates": [-178.80950666576257, 53.30649554380418]}}, {"type": "Feature", "properties": {"norad_id": 33932, "name": "COSMOS 2251 DEB", "group": "cosmos-2251-debris", "lat": 30.05458513505963, "lon": 98.35668984419992, "alt_km": 782.3632751049281, "timestamp": "2025-12-27T22:26:48.993678+00:00", "meta": {"OBJECT_NAME": "COSMOS 2251 DEB", "OBJECT_ID": "1993-036EM", "EPOCH": "2025-12-27T05:04:22.412064", "MEAN_MOTION": 14.38801134, "ECCENTRICITY": 0.0036067, "INCLINATION": 74.0343, "RA_OF_ASC_NODE": 289.2263, "ARG_OF_PERICENTER": 2.0411, "MEAN_ANOMALY": 358.0884, "EPHEMERIS_TYPE": 0, "CLASSIFICATION_TYPE": "U", "NORAD_CAT_ID": 33932, "ELEMENT_SET_NO": 999, "REV_AT_EPOCH": 88206, "BSTAR": 0.00054353, "MEAN_MOTION_DOT": 1.657e-05, "MEAN_MOTION_DDOT": 0}, "tle": {"line1": "1 33932U 93036EM  25361.21137051  .00001657  00000+0  54353-3 0  9999", "line2": "2 33932  74.0343 289.2263 0036067   2.0411 358.0884 14.38801134882068"}}, "geometry": {"type": "Point", "coordinates": [98.35668984419992, 30.05458513505963]}}, {"type": "Feature", "properties": {"norad_id": 33933, "name": "COSMOS 2251 DEB", "group": "cosmos-2251-debris", "lat": 63.41376856695713, "lon": 67.19020238126868, "alt_km": 730.2499244755254, "timestamp": "2025-12-27T22:26:48.993688+00:00", "meta": {"OBJECT_NAME": "COSMOS 2251 DEB", "OBJECT_ID": "1993-036EN", "EPOCH": "2025-12-27T12:05:02.185728", "MEAN_MOTION": 14.33512195, "ECCENTRICITY": 0.0071108, "INCLINATION": 74.0887, "RA_OF_ASC_NODE": 33.2279, "ARG_OF_PERICENTER": 37.2605, "MEAN_ANOMALY": 323.3449, "EPHEMERIS_TYPE": 0, "CLASSIFICATION_TYPE": "U", "NORAD_CAT_ID": 33933, "ELEMENT_SET_NO": 999, "REV_AT_EPOCH": 87996, "BSTAR": 0.0003197, "MEAN_MOTION_DOT": 8.84e-06, "MEAN_MOTION_DDOT": 0}, "tle": {"line1": "1 33933U 93036EN  25361.50349752  .00000884  00000+0  31970-3 0  9996", "line2": "2 33933  74.0887  33.2279 0071108  37.2605 323.3449 14.33512195879964"}}, "geometry": {"type": "Point", "coordinates": [67.19020238126868, 63.41376856695713]}}, {"type": "Feature", "properties": {"norad_id": 33934, "name": "COSMOS 2251 DEB", "group": "cosmos-2251-debris", "lat": 31.040666452901238, "lon": -118.30097643662829, "alt_km": 686.4304204059608, "timestamp": "2025-12-27T22:26:48.993698+00:00", "meta": {"OBJECT_NAME": "COSMOS 2251 DEB", "OBJECT_ID": "1993-036EP", "EPOCH": "2025-12-27T06:57:51.278112", "MEAN_MOTION": 14.59226401, "ECCENTRICITY": 0.0014962, "INCLINATION": 74.0378, "RA_OF_ASC_NODE": 72.8468, "ARG_OF_PERICENTER": 196.2127, "MEAN_ANOMALY": 163.8562, "EPHEMERIS_TYPE": 0, "CLASSIFICATION_TYPE": "U", "NORAD_CAT_ID": 33934, "ELEMENT_SET_NO": 999, "REV_AT_EPOCH": 88951, "BSTAR": 0.00092344, "MEAN_MOTION_DOT": 4.337e-05, "MEAN_MOTION_DDOT": 0}, "tle": {"line1": "1 33934U 93036EP  25361.29017683  .00004337  00000+0  92344-3 0  9997", "line2": "2 33934  74.0378  72.8468 0014962 196.2127 163.8562 14.59226401889514"}}, "geometry": {"type": "Point", "coordinates": [-118.30097643662829, 31.040666452901238]}}, {"type": "Feature", "properties": {"norad_id": 33936, "name": "COSMOS 2251 DEB", "group": "cosmos-2251-debris", "lat": 39.774625738613274, "lon": 174.63828444462217, "alt_km": 671.138758019737, "timestamp": "2025-12-27T22:26:48.993707+00:00", "meta": {"OBJECT_NAME": "COSMOS 2251 DEB", "OBJECT_ID": "1993-036ER", "EPOCH": "2025-12-27T07:01:09.592032", "MEAN_MOTION": 14.60359367, "ECCENTRICITY": 0.0026574, "INCLINATION": 74.0185, "RA_OF_ASC_NODE": 9.6679, "ARG_OF_PERICENTER": 161.4829, "MEAN_ANOMALY": 198.7311, "EPHEMERIS_TYPE": 0, "CLASSIFICATION_TYPE": "U", "NORAD_CAT_ID": 33936, "ELEMENT_SET_NO": 999, "REV_AT_EPOCH": 89102, "BSTAR": 0.00072062, "MEAN_MOTION_DOT": 3.474e-05, "MEAN_MOTION_DDOT": 0}, "tle": {"line1": "1 33936U 93036ER  25361.29247213  .00003474  00000+0  72062-3 0  9999", "line2": "2 33936  74.0185   9.6679 0026574 161.4829 198.7311 14.60359367891027"}}, "geometry": {"type": "Point", "coordinates": [174.63828444462217, 39.774625738613274]}}, {"type": "Feature", "properties": {"norad_id": 33938, "name": "COSMOS 2251 DEB", "group": "cosmos-2251-debris", "lat": -24.7956792133984, "lon": 171.20994121960763, "alt_km": 738.0182366336567, "timestamp": "2025-12-27T22:26:48.993717+00:00", "meta": {"OBJECT_NAME": "COSMOS 2251 DEB", "OBJECT_ID": "1993-036ET", "EPOCH": "2025-12-27T00:05:50.320032", "MEAN_MOTION": 14.46838787, "ECCENTRICITY": 0.0016796, "INCLINATION": 74.0436, "RA_OF_ASC_NODE": 180.5435, "ARG_OF_PERICENTER": 261.5611, "MEAN_ANOMALY": 264.018, "EPHEMERIS_TYPE": 0, "CLASSIFICATION_TYPE": "U", "NORAD_CAT_ID": 33938, "ELEMENT_SET_NO": 999, "REV_AT_EPOCH": 88606, "BSTAR": 0.00054419, "MEAN_MOTION_DOT": 1.949e-05, "MEAN_MOTION_DDOT": 0}, "tle": {"line1": "1 33938U 93036ET  25361.00405463  .00001949  00000+0  54419-3 0  9994", "line2": "2 33938  74.0436 180.5435 0016796 261.5611 264.0180 14.46838787886064"}}, "geometry": {"type": "Point", "coordinates": [171.20994121960763, -24.7956792133984]}}]}